STARLINK-1265
1 15406C 20019AY  21326.15660212 -.00015664  00000-0 -10498-2 0  3260
2 15406  53.0540 338.0327 0001498  55.6162  56.4602 15.06404441    14
